
BEESAT-1
1 35933U 09051C   26170.23167478  .00000627  00000+0  13563-3 0  9997
2 35933  98.3962  77.7869 0004344 209.2616 150.8342 14.61723361889481

CUBESAT XI-IV (CO-57)
1 27848U 03031J   26169.99348946  .00000173  00000+0  94896-4 0  9992
2 27848  98.6765 178.2408 0009145 191.5731 168.5239 14.23621647191638

CUBESAT XI-V
1 28895U 05043F   26170.16921031  .00001082  00000+0  17802-3 0  9994
2 28895  98.2987 325.8325 0013788 194.2954 165.7865 14.72636023102045

CUTE-1 (CO-55)
1 27844U 03031E   26170.28511223  .00000210  00000+0  10996-3 0  9992
2 27844  98.6736 178.8176 0009679 171.9692 188.1644 14.24336816191977

CUTE-1.7+APD II (CO-65)
1 32785U 08021C   26170.23748738  .00004777  00000+0  30223-3 0  9991
2 32785  97.8277 151.6986 0009550  32.2622 327.9188 15.09467527985500

EYESAT A (AO-27)
1 22825U 93061C   26170.16751487  .00000072  00000+0  44294-4 0  9998
2 22825  98.6880 237.5804 0009541  94.6825 265.5447 14.30942746707289

GOMX-1
1 39430U 13066Q   26170.29685231  .00001368  00000+0  21021-3 0  9993
2 39430  97.6475  10.6258 0130121  70.8662 290.6579 14.69466237670221

ISS (ZARYA)
1 25544U 98067A   26170.06007799  .00009022  00000+0  16988-3 0  9991
2 25544  51.6331 290.8234 0004652 203.3119 156.7659 15.49309015572049

ITAMSAT (IO-26)
1 22826U 93061D   26170.14633673  .00000072  00000+0  44131-4 0  9993
2 22826  98.6827 237.4769 0010056  79.9921 280.2396 14.31369676707593

ITUPSAT1
1 35935U 09051E   26170.22435493  .00000568  00000+0  12729-3 0  9990
2 35935  98.4046  76.9691 0006330 226.3575 133.7100 14.60443291889035

JAS-2 (FO-29)
1 24278U 96046B   26170.08554224 -.00000011  00000+0  21418-4 0  9996
2 24278  98.5238  18.6976 0350922  91.5200 272.6161 13.53274530473423

JUGNU
1 37839U 11058B   26169.70142229  .00000394  00000+0  66297-4 0  9995
2 37839  19.9619 299.2304 0018626  92.8225 295.0564 14.13777162759244

KKS-1 (KISEKI)
1 33499U 09002H   26170.21311462  .00001012  00000+0  13094-3 0  9998
2 33499  98.1189  92.6875 0006443 287.9618  72.0893 14.83128488936498

LUSAT (LO-19)
1 20442U 90005G   26170.27502463  .00000073  00000+0  42843-4 0  9995
2 20442  98.8849 192.1382 0011233 194.7755 165.3102 14.34123725902690

MOZHAETS 4 (RS22)
1 27939U 03042A   26170.32876547  .00000461  00000+0  79351-4 0  9996
2 27939  98.3467 354.7473 0009913 262.0222 220.1907 14.73469520215864

O/OREOS (USA 219)
1 37224U 10062C   26170.13826809  .00001731  00000+0  16904-3 0  9994
2 37224  71.9701  75.9200 0012618  58.9318 301.3090 14.93751304116933

OSCAR 7 (AO-7)
1 07530U 74089B   26170.28649176 -.00000049  00000+0 -14965-4 0  9995
2 07530 101.9899 183.5551 0012597 126.2079 245.4848 12.53698126360785

PCSAT (NO-44)
1 26931U 01043C   26170.25467584  .00000068  00000+0  56318-4 0  9996
2 26931  67.0503 238.9246 0006069 264.6599  95.3810 14.31956752290741

PHASE 3B (AO-10)
1 14129U 83058B   26168.36952042  .00000190  00000+0  00000+0 0  9993
2 14129  25.9123 219.5345 6010777 115.7182 316.6307  2.05868747295495

RADIO ROSTO (RS15)
1 23439U 94085A   26170.06714086 -.00000050  00000+0 -21208-3 0  9997
2 23439  64.8179 300.1758 0156005   3.5276 356.6711 11.27583462296119

SAUDISAT 1C (SO-50)
1 27607U 02058C   26170.24569630  .00000770  00000+0  10829-3 0  9994
2 27607  64.5512 122.6160 0075173 262.0965  97.1604 14.83050851264765

SEEDS II (CO-66)
1 32791U 08021J   26169.44123302  .00014056  00000+0  44622-3 0  9992
2 32791  97.7517 167.3987 0000890 357.5135   2.6101 15.32786684987483

SRMSAT
1 37841U 11058D   26170.07684065  .00000355  00000+0  48973-4 0  9997
2 37841  19.9727  48.0289 0011753 224.4771 289.9104 14.11575921758082

STRAND-1
1 39090U 13009E   26170.28390494  .00000193  00000+0  79422-4 0  9999
2 39090  98.3923 350.4666 0007835 218.3007 141.7624 14.37164225697362

SWISSCUBE
1 35932U 09051B   26170.22118169  .00000743  00000+0  15643-3 0  9998
2 35932  98.4033  78.1449 0006097 195.9849 164.1161 14.62484946889453

TECHSAT 1B (GO-32)
1 25397U 98043D   26170.24192257  .00000033  00000+0  34417-4 0  9996
2 25397  99.0068 163.0524 0001153 158.7829 201.3398 14.24428734451624

UOSAT 2 (UO-11)
1 14781U 84021B   26170.16786155  .00000971  00000+0  10437-3 0  9995
2 14781  97.8059 135.7203 0007827 165.9456 194.1981 14.90787328257424

XIWANG-1 (HOPE-1)
1 36122U 09072B   26170.29585707  .00000446  00000+0  12840-2 0  9991
2 36122 100.4033 124.0949 0006884 226.2934 133.7609 13.16441349793284

YUBILEINY (RS30)
1 32953U 08025A   26170.27136955  .00000057  00000+0  34284-3 0  9996
2 32953  82.5038 354.1428 0018779 309.1385  50.8025 12.43179633819959

ZACUBE-1 (TSHEPISOSAT)
1 39417U 13066B   26170.14032462  .00002311  00000+0  18198-3 0  9994
2 39417  97.8075 132.4874 0041049 240.9478 118.7631 15.01197255681023
